DELTA 2 R/B(1)          
1 20453U 90008B   26071.58229221  .00068711  00000+0  79308-3 0  9990
2 20453  35.6032 155.8638 0084468 285.3867  73.7550 15.56385855926588
COSMOS 2058             
1 20465U 90010A   26071.42889697  .00004772  00000+0  28118-3 0  9998
2 20465  82.4668  44.7287 0008931 335.5228  24.5576 15.11349429942658
SL-14 R/B               
1 20466U 90010B   26071.99177676  .00000526  00000+0  60852-4 0  9993
2 20466  82.4986 264.2859 0018398 290.5851  69.3390 14.83572192928979
SL-14 R/B               
1 20511U 90018B   26071.94528387  .00000638  00000+0  76946-4 0  9991
2 20511  82.5208 220.0464 0017632  82.2040 278.1175 14.82149082923069
HST                     
1 20580U 90037B   26071.94420326  .00008743  00000+0  28877-3 0  9996
2 20580  28.4723  17.7975 0001801 157.8631 202.2042 15.29540863773811
SL-16 R/B               
1 20625U 90046B   26071.73693960 -.00000150  00000+0 -52625-4 0  9994
2 20625  70.9981 291.5147 0016198 295.5364  64.4084 14.15011499848820
COSMOS 2084             
1 20663U 90055A   26071.77700403  .00002788  00000+0  20542-3 0  9990
2 20663  62.7917 325.0488 0016612 190.8037 169.2709 15.05671456936782
SL-6 R/B(2)             
1 20666U 90055D   26071.83037498  .00002577  00000+0  20089-3 0  9999
2 20666  62.7824 243.1697 0025307 347.7973  12.2510 15.03612237938663
SL-8 R/B                
1 20775U 90078B   26071.93527814  .00016825  00000+0  49569-3 0  9997
2 20775  82.9001 248.3911 0361564   3.0852 357.2472 14.89178843809789
SL-8 R/B                
1 21088U 91006B   26071.75804765  .00000082  00000+0  66495-4 0  9996
2 21088  82.9465 167.7649 0022899  29.9453  82.4219 13.77494761764492
OKEAN-3                 
1 21397U 91039A   26071.73778304  .00004149  00000+0  29134-3 0  9998
2 21397  82.5197 333.8906 0013653 326.2421  33.7935 15.04831780865495
COSMOS 2151             
1 21422U 91042A   26072.01851936  .00002466  00000+0  19527-3 0  9991
2 21422  82.4930  80.4641 0013855  53.5983 306.6517 15.00118564863698
SL-14 R/B               
1 21423U 91042B   26071.86392528  .00000621  00000+0  75581-4 0  9995
2 21423  82.4930 217.2057 0015958 227.4264 132.5605 14.81833532853544
ERS-1                   
1 21574U 91050A   26071.61679338  .00000400  00000+0  14253-3 0  9994
2 21574  98.7879  89.9249 0031784 191.6849 168.3604 14.39452058816151
ARIANE 40 R/B           
1 21610U 91050F   26071.73012727  .00000351  00000+0  11760-3 0  9996
2 21610  98.2006 123.8523 0004237  74.5063 285.6595 14.42896138819433
INTERCOSMOS 25          
1 21819U 91086A   26071.71218559  .00002062  00000+0  39708-3 0  9998
2 21819  82.6045 308.1814 1486913 110.4228 266.2502 12.12010050497053
SL-8 R/B                
1 21876U 92008B   26072.00400612  .00000014  00000+0 -19625-5 0  9996
2 21876  82.9221 265.3122 0035673 124.3739 345.9267 13.75969806709875
SL-8 R/B                
1 21938U 92020B   26071.75973389  .00000053  00000+0  39948-4 0  9997
2 21938  82.9332 151.4824 0027629 289.8460 192.9632 13.75549798701558
USA 81                  
1 21949U 92023A   26071.66268655  .00000185  00000+0  61111-4 0  9998
2 21949  85.0079 129.7261 0002381  74.9437 285.2019 14.32369041 95219
COSMOS 2219             
1 22219U 92076A   26071.98716295  .00000031  00000+0  41102-4 0  9998
2 22219  71.0640  11.1748 0018793 202.4420 157.5883 14.14093432718846
SL-16 R/B               
1 22220U 92076B   26071.75015648 -.00000110  00000+0 -30863-4 0  9991
2 22220  71.0008 181.9273 0010480  90.7055  61.1680 14.16859247722264
COSMOS 2221             
1 22236U 92080A   26071.98124307  .00002416  00000+0  21161-3 0  9990
2 22236  82.5012 275.9275 0014317 175.9855 184.1484 14.96215489781283
SL-16 R/B               
1 22285U 92093B   26071.99032781 -.00000124  00000+0 -39059-4 0  9995
2 22285  71.0242 357.3374 0006375 290.1836  69.8601 14.15447134713622
COSMOS 2228             
1 22286U 92094A   26071.92858646  .00003215  00000+0  27506-3 0  9991
2 22286  82.5159 234.2087 0016682 292.9073  67.0388 14.97209430776543
SL-16 R/B               
1 22566U 93016B   26071.81904072 -.00000028  00000+0  10064-4 0  9992
2 22566  71.0079 208.6082 0012038 309.9663  50.0401 14.15309352702612
COSMOS 2242             
1 22626U 93024A   26071.97900757  .00002137  00000+0  18521-3 0  9998
2 22626  82.5155 263.5694 0015006 296.8632  63.1056 14.96563844780881
SL-16 R/B               
1 22803U 93059B   26071.51189748 -.00000055  00000+0 -33432-5 0  9991
2 22803  70.9929   5.1749 0018365 212.4075 147.5922 14.17231383679930
ARIANE 40 R/B           
1 22830U 93061H   26071.77111388  .00000235  00000+0  10186-3 0  9994
2 22830  98.4910 140.5978 0009574 274.8814  85.1277 14.32862842694549
COSMOS 2278             
1 23087U 94023A   26071.70954885 -.00000011  00000+0  18980-4 0  9992
2 23087  71.0552 168.7804 0008293   7.5290 352.5956 14.14379509645239
SL-16 R/B               
1 23088U 94023B   26071.96673404 -.00000207  00000+0 -82170-4 0  9996
2 23088  70.9985  64.0041 0005679 282.5687  77.4800 14.15010758646555
SL-16 R/B               
1 23343U 94074B   26071.71335812  .00000598  00000+0  86804-4 0  9996
2 23343  97.7106 102.4086 0006035 199.4350 283.4668 14.79412069687699
SL-16 R/B               
1 23405U 94077B   26071.16978169  .00000105  00000+0  78284-4 0  9992
2 23405  70.9853 347.2721 0002954 208.8129 151.2831 14.15561637616580
ARIANE 40+ R/B          
1 23561U 95021B   26071.74535764  .00000337  00000+0  12127-3 0  9999
2 23561  98.4492 143.1865 0007761 128.3405 343.1943 14.39774980619686
SL-16 R/B               
1 23705U 95058B   26071.74224013  .00000316  00000+0  18601-3 0  9991
2 23705  71.0225 173.8469 0010649 120.1829 240.0350 14.15497449568288
SL-16 R/B               
1 24298U 96051B   26071.71556530  .00000088  00000+0  74448-4 0  9990
2 24298  70.7604 168.8345 0014828 143.3945 216.8191 14.12416562522074
ORBVIEW 2 (SEASTAR)     
1 24883U 97037A   26071.41507765  .00000369  00000+0  14441-3 0  9996
2 24883  98.8572 235.7991 0003027  66.4464 293.7039 14.35497264508869
SL-16 R/B               
1 25400U 98043G   26071.81878428  .00000087  00000+0  55455-4 0  9999
2 25400  98.8257  25.2043 0010062  11.7495 348.3918 14.26050651439433
SL-16 R/B               
1 25407U 98045B   26071.68103589  .00000297  00000+0  17402-3 0  9994
2 25407  71.0120 175.2837 0006932   3.5595 356.5576 14.16191601427528
ISS (ZARYA)             
1 25544U 98067A   26071.86901802  .00011348  00000+0  21655-3 0  9998
2 25544  51.6324  56.6367 0007924 186.1410 173.9482 15.48614629556825
CZ-4B R/B               
1 25732U 99025C   26071.78033076  .00000050  00000+0  44809-4 0  9997
2 25732  98.6621 115.9886 0036587 337.5943 138.4266 14.18265977388609
OKEAN-O                 
1 25860U 99039A   26071.82885704  .00000826  00000+0  11520-3 0  9996
2 25860  97.9435 131.6884 0001156  70.7306 289.4031 14.80341218434850
SL-16 R/B               
1 25861U 99039B   26071.73823470  .00000699  00000+0  95390-4 0  9995
2 25861  97.9961 130.8305 0013601 245.1835 114.7964 14.81736452437315
DELTA 2 R/B             
1 25876U 99041E   26071.98138346  .00001444  00000+0  27054-3 0  9992
2 25876  51.7623 288.1325 0502456 358.1395   1.7659 14.11849055363490
HELIOS 1B               
1 25977U 99064A   26071.74048604  .00002363  00000+0  26573-3 0  9996
2 25977  98.1686 334.0732 0002417  70.9295 289.2182 14.87713347685712
TERRA                   
1 25994U 99068A   26072.01302381  .00000518  00000+0  11473-3 0  9998
2 25994  97.9587 125.3207 0002900 143.9108 332.0707 14.61018741395566
SL-16 R/B               
1 26070U 00006B   26071.48526719 -.00000168  00000+0 -61237-4 0  9998
2 26070  71.0006  91.9589 0016616 186.1025 173.9898 14.15825371348956
TITAN 4B R/B            
1 26474U 00047B   26071.87689580  .00005198  00000+0  32527-3 0  9995
2 26474  67.9903  31.5476 0038672  31.6526 328.6937 15.09598310393390
ENVISAT                 
1 27386U 02009A   26071.87154074  .00000160  00000+0  65679-4 0  9992
2 27386  98.3732  25.3932 0001320  83.3093 294.1209 14.39038275259630
IDEFIX & ARIANE 42P R/B 
1 27422U 02021B   26071.78209926  .00000332  00000+0  14279-3 0  9994
2 27422  98.5870  10.3514 0011758 173.0588 187.0760 14.31028649244461
AQUA                    
1 27424U 02022A   26071.96594348  .00001249  00000+0  25893-3 0  9994
2 27424  98.4179  39.3906 0000582  93.4732 307.8118 14.61986054269214
CZ-4B R/B               
1 27432U 02024C   26071.76983673  .00000049  00000+0  48379-4 0  9998
2 27432  98.8832 125.1608 0050341  15.5117  93.0238 14.14548225229671
MIDORI II (ADEOS-II)    
1 27597U 02056A   26071.81390758  .00000399  00000+0  17468-3 0  9999
2 27597  98.7771  30.3130 0001473  39.0122 321.1166 14.29288057210743
H-2A R/B                
1 27601U 02056E   26071.84165253  .00000328  00000+0  12924-3 0  9992
2 27601  98.3206  32.0873 0070695 151.3349 238.3866 14.33763149214567
CZ-4B R/B               
1 28059U 03049C   26071.54683965  .00000487  00000+0  12323-3 0  9994
2 28059  98.6880  66.5637 0047354 221.9948 137.7613 14.55023378187019
CZ-2C R/B               
1 28222U 04012C   26071.74279325  .00057480  00000+0  58434-3 0  9998
2 28222  97.7224 137.3253 0012996 297.1576  62.8357 15.64897873204754
SL-16 R/B               
1 28353U 04021B   26071.70978777 -.00000272  00000+0 -11680-3 0  9997
2 28353  70.9996 226.1541 0004254   4.8299 355.2863 14.14596735123262
CZ-4B R/B               
1 28415U 04035C   26071.65771191  .00008737  00000+0  30743-3 0  9999
2 28415  97.3503 105.8650 0030713 320.6231  39.2777 15.29120497180368
CZ-2C R/B               
1 28480U 04046B   26071.78115616  .00000139  00000+0  66408-4 0  9997
2 28480  98.1981 346.5727 0140048 145.3368 215.7041 14.26993277108943
ARIANE 5 R/B            
1 28499U 04049H   26071.93369660  .00000930  00000+0  10891-3 0  9990
2 28499  98.2632 240.5121 0083707 341.3820  18.4336 14.85272856146278
